start=new Date('2023-06-04T00:00:00.000Z').valueOf();
sats=[{"EPHEMERIS_TYPE":"0","BSTAR":"0.00002594600000","OBJECT_ID":"2022-175S","MEAN_ANOMALY":"213.8921","NORAD_CAT_ID":"54774","APOAPSIS":"535.571","FILE":"3924076","OBJECT_TYPE":"PAYLOAD","GP_ID":"233112798","MEAN_MOTION":"15.10475796","DECAY_DATE":null,"PERIOD":"95.334","REF_FRAME":"TEME","MEAN_ELEMENT_THEORY":"SGP4","RCS_SIZE":"LARGE","ARG_OF_PERICENTER":"146.2147","CLASSIFICATION_TYPE":"U","SITE":"AFETR","REV_AT_EPOCH":"2763","MEAN_MOTION_DOT":"0.00000139","CENTER_NAME":"EARTH","MEAN_MOTION_DDOT":"0.0000000000000","LAUNCH_DATE":"2022-12-17","TIME_SYSTEM":"UTC","ELEMENT_SET_NO":"999","COUNTRY_CODE":"US","INCLINATION":"53.2163","ECCENTRICITY":"0.00011880","EPOCH":"2023-06-03T12:46:17.043744","PERIAPSIS":"533.929","TLE_LINE2":"2 54774  53.2163 243.6452 0001188 146.2147 213.8921 15.10475796 27637","TLE_LINE1":"1 54774U 22175S   23154.53214171  .00000139  00000-0  25946-4 0  9996","SEMIMAJOR_AXIS":"6912.885","RA_OF_ASC_NODE":"243.6452","OBJECT_NAME":"STARLINK-5454"},{"SEMIMAJOR_AXIS":"6917.755","OBJECT_NAME":"STARLINK-5465","RA_OF_ASC_NODE":"258.3808","SITE":"AFETR","REV_AT_EPOCH":"2743","MEAN_MOTION_DOT":"-0.00007169","MEAN_MOTION_DDOT":"0.0000000000000","CENTER_NAME":"EARTH","LAUNCH_DATE":"2022-12-17","TIME_SYSTEM":"UTC","COUNTRY_CODE":"US","ELEMENT_SET_NO":"999","ECCENTRICITY":"0.00012180","INCLINATION":"53.2172","TLE_LINE2":"2 54775  53.2172 258.3808 0001218 122.4407 237.6703 15.08881089 27438","TLE_LINE1":"1 54775U 22175T   23154.61014223 -.00007169  00000-0 -43232-3 0  9991","EPOCH":"2023-06-03T14:38:36.288672","PERIAPSIS":"538.777","MEAN_ELEMENT_THEORY":"SGP4","RCS_SIZE":"LARGE","ARG_OF_PERICENTER":"122.4407","CLASSIFICATION_TYPE":"U","OBJECT_ID":"2022-175T","BSTAR":"-0.00043232000000","EPHEMERIS_TYPE":"0","NORAD_CAT_ID":"54775","MEAN_ANOMALY":"237.6703","APOAPSIS":"540.462","OBJECT_TYPE":"PAYLOAD","FILE":"3924324","GP_ID":"233145605","PERIOD":"95.435","REF_FRAME":"TEME","DECAY_DATE":null,"MEAN_MOTION":"15.08881089"},{"MEAN_ELEMENT_THEORY":"SGP4","RCS_SIZE":"LARGE","ARG_OF_PERICENTER":"99.2408","CLASSIFICATION_TYPE":"U","NORAD_CAT_ID":"54776","MEAN_ANOMALY":"260.8683","BSTAR":"0.00000033760000","OBJECT_ID":"2022-175U","EPHEMERIS_TYPE":"0","APOAPSIS":"540.368","OBJECT_TYPE":"PAYLOAD","FILE":"3924076","PERIOD":"95.438","REF_FRAME":"TEME","DECAY_DATE":null,"MEAN_MOTION":"15.08834371","GP_ID":"233113799","OBJECT_NAME":"STARLINK-5470","RA_OF_ASC_NODE":"258.5481","SEMIMAJOR_AXIS":"6917.898","MEAN_MOTION_DOT":"-0.00000282","SITE":"AFETR","REV_AT_EPOCH":"2742","TIME_SYSTEM":"UTC","LAUNCH_DATE":"2022-12-17","MEAN_MOTION_DDOT":"0.0000000000000","CENTER_NAME":"EARTH","ECCENTRICITY":"0.00008750","INCLINATION":"53.2170","COUNTRY_CODE":"US","ELEMENT_SET_NO":"999","TLE_LINE2":"2 54776  53.2170 258.5481 0000875  99.2408 260.8683 15.08834371 27422","TLE_LINE1":"1 54776U 22175U   23154.52181142 -.00000282  00000-0  33760-6 0  9993","PERIAPSIS":"539.157","EPOCH":"2023-06-03T12:31:24.506688"},{"RCS_SIZE":"LARGE","MEAN_ELEMENT_THEORY":"SGP4","CLASSIFICATION_TYPE":"U","ARG_OF_PERICENTER":"68.2231","APOAPSIS":"540.140","NORAD_CAT_ID":"54777","MEAN_ANOMALY":"291.8825","OBJECT_ID":"2022-175V","BSTAR":"0.00009120900000","EPHEMERIS_TYPE":"0","PERIOD":"95.437","REF_FRAME":"TEME","DECAY_DATE":null,"MEAN_MOTION":"15.08846524","GP_ID":"233146607","OBJECT_TYPE":"PAYLOAD","FILE":"3924324","OBJECT_NAME":"STARLINK-5468","RA_OF_ASC_NODE":"258.3588","SEMIMAJOR_AXIS":"6917.860","TIME_SYSTEM":"UTC","LAUNCH_DATE":"2022-12-17","MEAN_MOTION_DDOT":"0.0000000000000","CENTER_NAME":"EARTH","MEAN_MOTION_DOT":"0.00001165","REV_AT_EPOCH":"2743","SITE":"AFETR","TLE_LINE1":"1 54777U 22175V   23154.60646791  .00001165  00000-0  91209-4 0  9999","TLE_LINE2":"2 54777  53.2168 258.3588 0000599  68.2231 291.8825 15.08846524 27435","EPOCH":"2023-06-03T14:33:18.827424","PERIAPSIS":"539.311","ECCENTRICITY":"0.00005990","INCLINATION":"53.2168","COUNTRY_CODE":"US","ELEMENT_SET_NO":"999"},{"RCS_SIZE":"LARGE","MEAN_ELEMENT_THEORY":"SGP4","CLASSIFICATION_TYPE":"U","ARG_OF_PERICENTER":"97.3507","APOAPSIS":"540.166","NORAD_CAT_ID":"54778","MEAN_ANOMALY":"262.7557","OBJECT_ID":"2022-175W","BSTAR":"0.00003224800000","EPHEMERIS_TYPE":"0","REF_FRAME":"TEME","PERIOD":"95.437","MEAN_MOTION":"15.08844724","DECAY_DATE":null,"GP_ID":"233145355","FILE":"3924324","OBJECT_TYPE":"PAYLOAD","OBJECT_NAME":"STARLINK-5450","RA_OF_ASC_NODE":"243.5289","SEMIMAJOR_AXIS":"6917.866","TIME_SYSTEM":"UTC","LAUNCH_DATE":"2022-12-17","MEAN_MOTION_DDOT":"0.0000000000000","CENTER_NAME":"EARTH","MEAN_MOTION_DOT":"0.00000226","SITE":"AFETR","REV_AT_EPOCH":"2764","TLE_LINE1":"1 54778U 22175W   23154.62811639  .00000226  00000-0  32248-4 0  9992","TLE_LINE2":"2 54778  53.2174 243.5289 0000629  97.3507 262.7557 15.08844724 27642","EPOCH":"2023-06-03T15:04:29.256096","PERIAPSIS":"539.296","ECCENTRICITY":"0.00006290","INCLINATION":"53.2174","COUNTRY_CODE":"US","ELEMENT_SET_NO":"999"},{"MEAN_MOTION_DOT":"0.00001034","REV_AT_EPOCH":"2764","SITE":"AFETR","LAUNCH_DATE":"2022-12-17","TIME_SYSTEM":"UTC","MEAN_MOTION_DDOT":"0.0000000000000","CENTER_NAME":"EARTH","INCLINATION":"53.2168","ECCENTRICITY":"0.00009360","ELEMENT_SET_NO":"999","COUNTRY_CODE":"US","PERIAPSIS":"539.087","EPOCH":"2023-06-03T15:09:47.944224","TLE_LINE1":"1 54779U 22175X   23154.63180491  .00001034  00000-0  83030-4 0  9992","TLE_LINE2":"2 54779  53.2168 243.5512 0000936  77.4262 282.6835 15.08843491 27643","RA_OF_ASC_NODE":"243.5512","OBJECT_NAME":"STARLINK-5447","SEMIMAJOR_AXIS":"6917.870","MEAN_ANOMALY":"282.6835","NORAD_CAT_ID":"54779","EPHEMERIS_TYPE":"0","BSTAR":"0.00008303000000","OBJECT_ID":"2022-175X","APOAPSIS":"540.382","FILE":"3924324","OBJECT_TYPE":"PAYLOAD","MEAN_MOTION":"15.08843491","DECAY_DATE":null,"PERIOD":"95.437","REF_FRAME":"TEME","GP_ID":"233146106","MEAN_ELEMENT_THEORY":"SGP4","RCS_SIZE":"LARGE","ARG_OF_PERICENTER":"77.4262","CLASSIFICATION_TYPE":"U"},{"ECCENTRICITY":"0.00009580","INCLINATION":"53.2179","COUNTRY_CODE":"US","ELEMENT_SET_NO":"999","TLE_LINE1":"1 54780U 22175Y   23154.54714435 -.00000256  00000-0  19654-5 0  9993","TLE_LINE2":"2 54780  53.2179 243.7323 0000958 106.2328 253.8769 15.08834134 25476","PERIAPSIS":"539.101","EPOCH":"2023-06-03T13:07:53.271840","MEAN_MOTION_DOT":"-0.00000256","SITE":"AFETR","REV_AT_EPOCH":"2547","LAUNCH_DATE":"2022-12-17","TIME_SYSTEM":"UTC","CENTER_NAME":"EARTH","MEAN_MOTION_DDOT":"0.0000000000000","OBJECT_NAME":"STARLINK-5449","RA_OF_ASC_NODE":"243.7323","SEMIMAJOR_AXIS":"6917.898","FILE":"3924088","OBJECT_TYPE":"PAYLOAD","PERIOD":"95.438","REF_FRAME":"TEME","MEAN_MOTION":"15.08834134","DECAY_DATE":null,"GP_ID":"233115254","NORAD_CAT_ID":"54780","MEAN_ANOMALY":"253.8769","BSTAR":"0.00000196540000","OBJECT_ID":"2022-175Y","EPHEMERIS_TYPE":"0","APOAPSIS":"540.426","ARG_OF_PERICENTER":"106.2328","CLASSIFICATION_TYPE":"U","MEAN_ELEMENT_THEORY":"SGP4","RCS_SIZE":"LARGE"},{"FILE":"3924324","OBJECT_TYPE":"PAYLOAD","MEAN_MOTION":"15.08842579","DECAY_DATE":null,"REF_FRAME":"TEME","PERIOD":"95.437","GP_ID":"233147108","MEAN_ANOMALY":"259.7607","NORAD_CAT_ID":"54781","EPHEMERIS_TYPE":"0","OBJECT_ID":"2022-175Z","BSTAR":"0.00001335800000","APOAPSIS":"540.481","ARG_OF_PERICENTER":"100.3506","CLASSIFICATION_TYPE":"U","MEAN_ELEMENT_THEORY":"SGP4","RCS_SIZE":"LARGE","INCLINATION":"53.2182","ECCENTRICITY":"0.00010750","ELEMENT_SET_NO":"999","COUNTRY_CODE":"US","EPOCH":"2023-06-03T16:34:34.476384","PERIAPSIS":"538.994","TLE_LINE2":"2 54781  53.2182 243.1993 0001075 100.3506 259.7607 15.08842579 27652","TLE_LINE1":"1 54781U 22175Z   23154.69067681 -.00000075  00000-0  13358-4 0  9997","MEAN_MOTION_DOT":"-0.00000075","SITE":"AFETR","REV_AT_EPOCH":"2765","TIME_SYSTEM":"UTC","LAUNCH_DATE":"2022-12-17","MEAN_MOTION_DDOT":"0.0000000000000","CENTER_NAME":"EARTH","RA_OF_ASC_NODE":"243.1993","OBJECT_NAME":"STARLINK-5443","SEMIMAJOR_AXIS":"6917.873"},{"CENTER_NAME":"EARTH","MEAN_MOTION_DDOT":"0.0000000000000","TIME_SYSTEM":"UTC","LAUNCH_DATE":"2022-12-17","REV_AT_EPOCH":"2811","SITE":"AFETR","MEAN_MOTION_DOT":"0.00014046","PERIAPSIS":"520.782","EPOCH":"2023-06-03T20:47:20.586336","TLE_LINE2":"2 54782  53.2168 211.5587 0001476  65.3207 294.7941 15.14729910 28110","TLE_LINE1":"1 54782U 22175AA  23154.86621049  .00014046  00000-0  76398-3 0  9995","ELEMENT_SET_NO":"999","COUNTRY_CODE":"US","INCLINATION":"53.2168","ECCENTRICITY":"0.00014760","SEMIMAJOR_AXIS":"6899.936","RA_OF_ASC_NODE":"211.5587","OBJECT_NAME":"STARLINK-5437","APOAPSIS":"522.819","EPHEMERIS_TYPE":"0","BSTAR":"0.00076398000000","OBJECT_ID":"2022-175AA","MEAN_ANOMALY":"294.7941","NORAD_CAT_ID":"54782","GP_ID":"233145856","DECAY_DATE":null,"MEAN_MOTION":"15.14729910","REF_FRAME":"TEME","PERIOD":"95.066","FILE":"3924324","OBJECT_TYPE":"PAYLOAD","RCS_SIZE":"LARGE","MEAN_ELEMENT_THEORY":"SGP4","CLASSIFICATION_TYPE":"U","ARG_OF_PERICENTER":"65.3207"},{"RA_OF_ASC_NODE":"243.1824","OBJECT_NAME":"STARLINK-5439","SEMIMAJOR_AXIS":"6917.877","TIME_SYSTEM":"UTC","LAUNCH_DATE":"2022-12-17","CENTER_NAME":"EARTH","MEAN_MOTION_DDOT":"0.0000000000000","MEAN_MOTION_DOT":"0.00001123","REV_AT_EPOCH":"2765","SITE":"AFETR","EPOCH":"2023-06-03T16:29:16.035360","PERIAPSIS":"539.153","TLE_LINE2":"2 54783  53.2170 243.1824 0000851  94.3592 265.7498 15.08841149 27659","TLE_LINE1":"1 54783U 22175AB  23154.68699115  .00001123  00000-0  88631-4 0  9991","INCLINATION":"53.2170","ECCENTRICITY":"0.00008510","ELEMENT_SET_NO":"999","COUNTRY_CODE":"US","RCS_SIZE":"LARGE","MEAN_ELEMENT_THEORY":"SGP4","CLASSIFICATION_TYPE":"U","ARG_OF_PERICENTER":"94.3592","APOAPSIS":"540.331","MEAN_ANOMALY":"265.7498","NORAD_CAT_ID":"54783","EPHEMERIS_TYPE":"0","OBJECT_ID":"2022-175AB","BSTAR":"0.00008863100000","MEAN_MOTION":"15.08841149","DECAY_DATE":null,"PERIOD":"95.437","REF_FRAME":"TEME","GP_ID":"233145606","FILE":"3924324","OBJECT_TYPE":"PAYLOAD"}];
